[{"OBJECT_NAME":"STARLINK-2280","OBJECT_ID":"2021-021B","EPOCH":"2026-03-09T17:07:20.456544","MEAN_MOTION":15.2934668,"ECCENTRICITY":9.009e-5,"INCLINATION":53.1606,"RA_OF_ASC_NODE":257.8343,"ARG_OF_PERICENTER":86.4428,"MEAN_ANOMALY":273.6676,"EPHEMERIS_TYPE":0,"CLASSIFICATION_TYPE":"U","NORAD_CAT_ID":47861,"ELEMENT_SET_NO":999,"REV_AT_EPOCH":27640,"BSTAR":-4.2507093e-5,"MEAN_MOTION_DOT":-1.582e-5,"MEAN_MOTION_DDOT":0},{"OBJECT_NAME":"OBJECT H","OBJECT_ID":"2025-155H","EPOCH":"2026-03-09T22:09:58.611456","MEAN_MOTION":15.27590961,"ECCENTRICITY":0.00081993,"INCLINATION":97.4482,"RA_OF_ASC_NODE":37.3122,"ARG_OF_PERICENTER":152.0629,"MEAN_ANOMALY":208.1051,"EPHEMERIS_TYPE":0,"CLASSIFICATION_TYPE":"U","NORAD_CAT_ID":64883,"ELEMENT_SET_NO":999,"REV_AT_EPOCH":6559,"BSTAR":0.00050403256,"MEAN_MOTION_DOT":0.00013547,"MEAN_MOTION_DDOT":0}]
